NORAD_CAT_ID,OBJECT_NAME,OBJECT_TYPE,EPOCH,MEAN_MOTION,ECCENTRICITY,INCLINATION,RA_OF_ASC_NODE,ARG_OF_PERICENTER,MEAN_ANOMALY,BSTAR,MEAN_MOTION_DOT,MEAN_MOTION_DDOT,TLE_LINE0,TLE_LINE1,TLE_LINE2,SEMIMAJOR_AXIS,PERIOD,APOGEE,PERIGEE,DECAYED
56482.0,STARLINK-6220,PAYLOAD,2023-12-02 14:57:39,14.98369314,0.0002144,70.0035,52.2814,278.7713,81.3203,-4.3202e-05,-6.09e-06,0.0,0 STARLINK-6220,1 56482U 23064AL  23336.62337194 -.00000609  00000-0 -43202-4 0  9994,2 56482  70.0035  52.2814 0002144 278.7713  81.3203 14.98369314 32066,6950.071,96.104,573.426,570.446,0.0
56482.0,STARLINK-6220,PAYLOAD,2023-12-03 03:46:47,14.98308434,0.0002618,70.0018,50.9328,268.4516,91.6343,-0.00015948,-1.994e-05,0.0,0 STARLINK-6220,1 56482U 23064AL  23337.15749361 -.00001994  00000-0 -15948-3 0  9999,2 56482  70.0018  50.9328 0002618 268.4516  91.6343 14.98308434 32149,6950.26,96.108,573.944,570.305,0.0
56482.0,STARLINK-6220,PAYLOAD,2023-12-03 11:47:29,14.9828908,0.0002688,70.002,50.0911,253.1379,106.9485,-0.00035561,-4.329e-05,0.0,0 STARLINK-6220,1 56482U 23064AL  23337.49131597 -.00004329  00000-0 -35561-3 0  9990,2 56482  70.0020  50.0911 0002688 253.1379 106.9485 14.98289080 32193,6950.319,96.11,574.053,570.316,0.0
56482.0,STARLINK-6220,PAYLOAD,2023-12-03 13:23:37,14.98289476,0.0002667,70.0021,49.9227,253.5506,106.536,-0.00034496,-4.202e-05,0.0,0 STARLINK-6220,1 56482U 23064AL  23337.55807687 -.00004202  00000-0 -34496-3 0  9993,2 56482  70.0021  49.9227 0002667 253.5506 106.5360 14.98289476 31842,6950.318,96.11,574.037,570.33,0.0
56482.0,STARLINK-6220,PAYLOAD,2023-12-04 11:49:28,14.98336306,0.0002715,70.0043,47.5705,223.3326,136.762,-0.00010917,-1.395e-05,0.0,0 STARLINK-6220,1 56482U 23064AL  23338.49268768 -.00001395  00000-0 -10917-3 0  9990,2 56482  70.0043  47.5705 0002715 223.3326 136.7620 14.98336306 32345,6950.173,96.107,573.925,570.151,0.0
56482.0,STARLINK-6220,PAYLOAD,2023-12-04 13:25:36,14.98333497,0.0002479,70.0047,47.4007,240.3446,119.7466,-8.3872e-05,-1.094e-05,0.0,0 STARLINK-6220,1 56482U 23064AL  23338.55944917 -.00001094  00000-0 -83872-4 0  9991,2 56482  70.0047  47.4007 0002479 240.3446 119.7466 14.98333497 31999,6950.182,96.107,573.77,570.324,0.0
56482.0,STARLINK-6220,PAYLOAD,2023-12-04 15:01:44,14.98338083,0.0002623,70.0029,47.2313,241.4625,118.627,-6.9813e-05,-9.26e-06,0.0,0 STARLINK-6220,1 56482U 23064AL  23338.62620548 -.00000926  00000-0 -69813-4 0  9992,2 56482  70.0029  47.2313 0002623 241.4625 118.6270 14.98338083 32009,6950.168,96.106,573.856,570.21,0.0
56482.0,STARLINK-6220,PAYLOAD,2023-12-05 11:51:28,14.98321591,0.0002644,70.003,45.0428,246.6823,113.4058,0.00049622,5.831e-05,0.0,0 STARLINK-6220,1 56482U 23064AL  23339.49407996  .00005831  00000-0  49622-3 0  9991,2 56482  70.0030  45.0428 0002644 246.6823 113.4058 14.98321591 32490,6950.219,96.108,573.922,570.246,0.0
56482.0,STARLINK-6220,PAYLOAD,2023-12-05 13:27:36,14.98319975,0.0002452,70.0029,44.875,246.5853,113.5048,0.00056953,6.707e-05,0.0,0 STARLINK-6220,1 56482U 23064AL  23339.56084005  .00006707  00000-0  56953-3 0  9999,2 56482  70.0029  44.8750 0002452 246.5853 113.5048 14.98319975 32147,6950.224,96.108,573.793,570.385,0.0
56482.0,STARLINK-6220,PAYLOAD,2023-12-05 15:03:44,14.98328316,0.0002588,70.0027,44.7052,260.3455,99.7411,0.00053485,6.294e-05,0.0,0 STARLINK-6220,1 56482U 23064AL  23339.62759595  .00006294  00000-0  53485-3 0  9997,2 56482  70.0027  44.7052 0002588 260.3455  99.7411 14.98328316 32150,6950.198,96.107,573.862,570.264,0.0
56482.0,STARLINK-6220,PAYLOAD,2023-12-06 11:53:30,14.98321207,0.0002468,70.0055,42.5214,215.2208,144.8788,-0.0001753,-2.183e-05,0.0,0 STARLINK-6220,1 56482U 23064AL  23340.49549766 -.00002183  00000-0 -17530-3 0  9997,2 56482  70.0055  42.5214 0002468 215.2208 144.8788 14.98321207 32644,6950.22,96.108,573.8,570.37,0.0
56482.0,STARLINK-6220,PAYLOAD,2023-12-06 13:29:44,14.98243839,0.0002242,70.0055,42.3535,236.8206,123.2738,-0.0010104,-0.00012101,0.0,0 STARLINK-6220,1 56482U 23064AL  23340.56232359 -.00012101  00000-0 -10104-2 0  9992,2 56482  70.0055  42.3535 0002242 236.8206 123.2738 14.98243839 32296,6950.459,96.113,573.883,570.766,0.0
56482.0,STARLINK-6220,PAYLOAD,2023-12-07 03:54:51,14.98341821,0.0003399,70.0052,40.8381,268.4597,91.6173,-0.00067155,-8.099e-05,0.0,0 STARLINK-6220,1 56482U 23064AL  23341.16309628 -.00008099  00000-0 -67155-3 0  9993,2 56482  70.0052  40.8381 0003399 268.4597  91.6173 14.98341821 32744,6950.156,96.106,574.384,569.659,0.0
56482.0,STARLINK-6220,PAYLOAD,2023-12-07 11:55:30,14.98331979,0.0002689,70.0027,39.9939,250.6456,109.4412,-0.0001855,-2.306e-05,0.0,0 STARLINK-6220,1 56482U 23064AL  23341.49688619 -.00002306  00000-0 -18550-3 0  9999,2 56482  70.0027  39.9939 0002689 250.6456 109.4412 14.98331979 32794,6950.187,96.107,573.921,570.183,0.0
56482.0,STARLINK-6220,PAYLOAD,2023-12-07 13:31:39,14.98330993,0.0002417,70.0025,39.8249,262.0552,98.0333,-0.0001824,-2.269e-05,0.0,0 STARLINK-6220,1 56482U 23064AL  23341.56364807 -.00002269  00000-0 -18240-3 0  9991,2 56482  70.0025  39.8249 0002417 262.0552  98.0333 14.98330993 32440,6950.19,96.107,573.735,570.375,0.0
56482.0,STARLINK-6220,PAYLOAD,2023-12-08 11:57:32,14.98320216,0.0002545,70.0034,37.4701,236.2308,123.8609,-6.3139e-06,-1.68e-06,0.0,0 STARLINK-6220,1 56482U 23064AL  23342.49828788 -.00000168  00000-0 -63139-5 0  9992,2 56482  70.0034  37.4701 0002545 236.2308 123.8609 14.98320216 32946,6950.223,96.108,573.857,570.319,0.0
56482.0,STARLINK-6220,PAYLOAD,2023-12-09 03:58:51,14.98330326,0.0002607,70.0026,35.789,261.6418,98.4446,0.00012263,1.371e-05,0.0,0 STARLINK-6220,1 56482U 23064AL  23343.16587932  .00001371  00000-0  12263-3 0  9995,2 56482  70.0026  35.7890 0002607 261.6418  98.4446 14.98330326 33041,6950.192,96.107,573.869,570.245,0.0
56482.0,STARLINK-6220,PAYLOAD,2023-12-09 11:59:32,14.98329446,0.0003091,70.0012,34.9425,265.5595,94.5211,0.00013534,1.522e-05,0.0,0 STARLINK-6220,1 56482U 23064AL  23343.49967873  .00001522  00000-0  13534-3 0  9997,2 56482  70.0012  34.9425 0003091 265.5595  94.5211 14.98329446 32731,6950.195,96.107,574.208,569.911,0.0
56482.0,STARLINK-6220,PAYLOAD,2023-12-10 12:01:33,14.98327633,0.0002895,70.0011,32.4175,262.6745,97.4085,-1.693e-06,-1.13e-06,0.0,0 STARLINK-6220,1 56482U 23064AL  23344.50108339 -.00000113  00000-0 -16930-5 0  9996,2 56482  70.0011  32.4175 0002895 262.6745  97.4085 14.98327633 33245,6950.2,96.107,574.077,570.053,0.0
56482.0,STARLINK-6220,PAYLOAD,2023-12-10 13:37:41,14.98327806,0.000291,70.001,32.2487,263.399,96.6837,-3.7179e-07,-9.7e-07,0.0,0 STARLINK-6220,1 56482U 23064AL  23344.56784330 -.00000097  00000-0 -37179-6 0  9993,2 56482  70.0010  32.2487 0002910 263.3990  96.6837 14.98327806 32894,6950.2,96.107,574.087,570.042,0.0
56482.0,STARLINK-6220,PAYLOAD,2023-12-11 04:02:53,14.98335715,0.000288,70.0008,30.7332,267.7339,92.349,5.7171e-07,-8.6e-07,0.0,0 STARLINK-6220,1 56482U 23064AL  23345.16867757 -.00000086  00000-0  57171-6 0  9996,2 56482  70.0008  30.7332 0002880 267.7339  92.3490 14.98335715 33341,6950.175,96.107,574.042,570.039,0.0
56482.0,STARLINK-6220,PAYLOAD,2023-12-11 12:03:33,14.98335701,0.0002877,70.0009,29.8919,267.6435,92.4395,1.7438e-06,-7.2e-07,0.0,0 STARLINK-6220,1 56482U 23064AL  23345.50247637 -.00000072  00000-0  17438-5 0  9999,2 56482  70.0009  29.8919 0002877 267.6435  92.4395 14.98335701 33030,6950.175,96.107,574.04,570.041,0.0
56482.0,STARLINK-6220,PAYLOAD,2023-12-12 04:04:54,14.98332174,0.0002892,70.0007,28.2082,272.3728,87.71,-4.2224e-06,-1.43e-06,0.0,0 STARLINK-6220,1 56482U 23064AL  23346.17007793 -.00000143  00000-0 -42224-5 0  9991,2 56482  70.0007  28.2082 0002892 272.3728  87.7100 14.98332174 33499,6950.186,96.107,574.061,570.041,0.0
56482.0,STARLINK-6220,PAYLOAD,2023-12-12 12:05:34,14.98382326,0.0003072,70.001,27.3672,269.2957,90.785,-0.00085144,-0.00010251,0.0,0 STARLINK-6220,1 56482U 23064AL  23346.50387527 -.00010251  00000-0 -85144-3 0  9991,2 56482  70.0010  27.3672 0003072 269.2957  90.7850 14.98382326 33544,6950.031,96.104,574.031,569.761,0.0
56482.0,STARLINK-6220,PAYLOAD,2023-12-13 04:06:55,14.98336043,0.000278,70.0011,25.6847,257.4581,102.6267,-0.00010663,-1.365e-05,0.0,0 STARLINK-6220,1 56482U 23064AL  23347.17147675 -.00001365  00000-0 -10663-3 0  9993,2 56482  70.0011  25.6847 0002780 257.4581 102.6267 14.98336043 33648,6950.174,96.107,573.971,570.107,0.0
56482.0,STARLINK-6220,PAYLOAD,2023-12-13 12:07:35,14.98330793,0.0002831,70.0012,24.8432,258.4688,101.6153,-4.0382e-05,-5.75e-06,0.0,0 STARLINK-6220,1 56482U 23064AL  23347.50527731 -.00000575  00000-0 -40382-4 0  9999,2 56482  70.0012  24.8432 0002831 258.4688 101.6153 14.98330793 33331,6950.19,96.107,574.023,570.088,0.0
56482.0,STARLINK-6220,PAYLOAD,2023-12-14 04:08:56,14.98330675,0.0002881,70.001,23.1596,261.3159,98.7673,1.4836e-05,8.4e-07,0.0,0 STARLINK-6220,1 56482U 23064AL  23348.17287512  .00000084  00000-0  14836-4 0  9991,2 56482  70.0010  23.1596 0002881 261.3159  98.7673 14.98330675 33795,6950.191,96.107,574.058,570.053,0.0
56482.0,STARLINK-6220,PAYLOAD,2023-12-14 12:09:36,14.98330235,0.0002906,70.001,22.3182,262.2323,97.8506,7.2152e-06,-7e-08,0.0,0 STARLINK-6220,1 56482U 23064AL  23348.50667552 -.00000007  00000-0  72152-5 0  9996,2 56482  70.0010  22.3182 0002906 262.2323  97.8506 14.98330235 33481,6950.192,96.107,574.077,570.037,0.0
56482.0,STARLINK-6220,PAYLOAD,2023-12-15 04:10:57,14.98330609,0.0002932,70.001,20.6349,262.947,97.1355,1.4098e-05,7.5e-07,0.0,0 STARLINK-6220,1 56482U 23064AL  23349.17427467  .00000075  00000-0  14098-4 0  9997,2 56482  70.0010  20.6349 0002932 262.9470  97.1355 14.98330609 33947,6950.191,96.107,574.094,570.018,0.0
56482.0,STARLINK-6220,PAYLOAD,2023-12-15 12:11:37,14.98330735,0.0002934,70.0009,19.793,263.8242,96.2583,1.5571e-05,9.3e-07,0.0,0 STARLINK-6220,1 56482U 23064AL  23349.50807431  .00000093  00000-0  15571-4 0  9994,2 56482  70.0009  19.7930 0002934 263.8242  96.2583 14.98330735 33638,6950.191,96.107,574.095,570.016,0.0
